STARLINK-35429          
1 66590U 25270C   25356.75238221  .00048110  00000+0  11506-2 0  9991
2 66590  42.9967 134.6337 0002327 265.0186  95.0404 15.40726760  6000
STARLINK-36058          
1 66591U 25270D   25357.33336806  .00082223  00000+0  19571-2 0  9998
2 66591  43.0002 131.0755 0001324 284.4717 148.9131 15.40659997  6102
STARLINK-36066          
1 66592U 25270E   25356.77702953  .00042277  00000+0  10130-2 0  9993
2 66592  43.0016 134.8249 0002517 264.3222  95.7347 15.40721269  5794
STARLINK-36031          
1 66593U 25270F   25356.76134147  .00023500  00000+0  56791-3 0  9999
2 66593  43.0040 134.7018 0002121 277.8228  82.2387 15.40709411  5892
STARLINK-36032          
1 66594U 25270G   25357.00001157  .00018409  00000+0  44713-3 0  9995
2 66594  43.0003 133.0866 0001577 283.1884  61.7028 15.40683094  5787
STARLINK-35711          
1 66595U 25270H   25357.33336806  .00083442  00000+0  19841-2 0  9996
2 66595  43.0005 130.9540 0001538 243.6405 239.4377 15.40682767  5947
STARLINK-35811          
1 66596U 25270J   25356.78152073  .00056012  00000+0  13359-2 0  9998
2 66596  42.9952 134.8575 0001173  40.5321 319.5623 15.40753898  6000
STARLINK-35820          
1 66597U 25270K   25357.09667693  .00001834  00000+0  51155-4 0  9993
2 66597  43.0012 132.9200 0003044 255.7586 104.2932 15.40705080  6053
STARLINK-35981          
1 66598U 25270L   25356.69204071  .00077913  00000+0  18487-2 0  9996
2 66598  42.9975 135.0381 0001602 258.5949 101.4727 15.40777654  5737
STARLINK-35930          
1 66599U 25270M   25357.33336806  .00064640  00000+0  15436-2 0  9995
2 66599  43.0003 131.0138 0001263 278.1426 180.1255 15.40660816  6102
STARLINK-35980          
1 66600U 25270N   25357.07204932  .00037487  00000+0  89978-3 0  9995
2 66600  43.0002 132.7304 0001622 275.2410  84.8262 15.40715980  5848
STARLINK-35978          
1 66601U 25270P   25356.70099834  .00010926  00000+0  26821-3 0  9995
2 66601  43.0011 135.1079 0000363 356.8630   3.2224 15.40724614  5720
