CCSDS_OMM_VERS = 2.0
CREATION_DATE  = 
ORIGINATOR     = 

OBJECT_NAME    = STARLINK-35429
OBJECT_ID      = 2025-270C
CENTER_NAME    = EARTH
REF_FRAME      = TEME
TIME_SYSTEM    = UTC
MEAN_ELEMENT_THEORY = SGP/SGP4

EPOCH          = 2025-12-22T18:03:25.822944
MEAN_MOTION    = 15.40726760
ECCENTRICITY   = .00023279
INCLINATION    = 42.9967
RA_OF_ASC_NODE = 134.6337
ARG_OF_PERICENTER = 265.0186
MEAN_ANOMALY   = 95.0404

EPHEMERIS_TYPE = 0
CLASSIFICATION_TYPE = U
NORAD_CAT_ID   = 66590
ELEMENT_SET_NO = 999
REV_AT_EPOCH   = 600
BSTAR          = .11506307E-2
MEAN_MOTION_DOT = .4811E-3
MEAN_MOTION_DDOT = 0

CCSDS_OMM_VERS = 2.0
CREATION_DATE  = 
ORIGINATOR     = 

OBJECT_NAME    = STARLINK-36058
OBJECT_ID      = 2025-270D
CENTER_NAME    = EARTH
REF_FRAME      = TEME
TIME_SYSTEM    = UTC
MEAN_ELEMENT_THEORY = SGP/SGP4

EPOCH          = 2025-12-23T08:00:03.000384
MEAN_MOTION    = 15.40659997
ECCENTRICITY   = .00013245
INCLINATION    = 43.0002
RA_OF_ASC_NODE = 131.0755
ARG_OF_PERICENTER = 284.4717
MEAN_ANOMALY   = 148.9131

EPHEMERIS_TYPE = 0
CLASSIFICATION_TYPE = U
NORAD_CAT_ID   = 66591
ELEMENT_SET_NO = 999
REV_AT_EPOCH   = 610
BSTAR          = .19570512E-2
MEAN_MOTION_DOT = .82223E-3
MEAN_MOTION_DDOT = 0

CCSDS_OMM_VERS = 2.0
CREATION_DATE  = 
ORIGINATOR     = 

OBJECT_NAME    = STARLINK-36066
OBJECT_ID      = 2025-270E
CENTER_NAME    = EARTH
REF_FRAME      = TEME
TIME_SYSTEM    = UTC
MEAN_ELEMENT_THEORY = SGP/SGP4

EPOCH          = 2025-12-22T18:38:55.351392
MEAN_MOTION    = 15.40721269
ECCENTRICITY   = .00025171
INCLINATION    = 43.0016
RA_OF_ASC_NODE = 134.8249
ARG_OF_PERICENTER = 264.3222
MEAN_ANOMALY   = 95.7347

EPHEMERIS_TYPE = 0
CLASSIFICATION_TYPE = U
NORAD_CAT_ID   = 66592
ELEMENT_SET_NO = 999
REV_AT_EPOCH   = 579
BSTAR          = .10129507E-2
MEAN_MOTION_DOT = .42277E-3
MEAN_MOTION_DDOT = 0

CCSDS_OMM_VERS = 2.0
CREATION_DATE  = 
ORIGINATOR     = 

OBJECT_NAME    = STARLINK-36031
OBJECT_ID      = 2025-270F
CENTER_NAME    = EARTH
REF_FRAME      = TEME
TIME_SYSTEM    = UTC
MEAN_ELEMENT_THEORY = SGP/SGP4

EPOCH          = 2025-12-22T18:16:19.903008
MEAN_MOTION    = 15.40709411
ECCENTRICITY   = .00021218
INCLINATION    = 43.0040
RA_OF_ASC_NODE = 134.7018
ARG_OF_PERICENTER = 277.8228
MEAN_ANOMALY   = 82.2387

EPHEMERIS_TYPE = 0
CLASSIFICATION_TYPE = U
NORAD_CAT_ID   = 66593
ELEMENT_SET_NO = 999
REV_AT_EPOCH   = 589
BSTAR          = .56790845E-3
MEAN_MOTION_DOT = .235E-3
MEAN_MOTION_DDOT = 0

CCSDS_OMM_VERS = 2.0
CREATION_DATE  = 
ORIGINATOR     = 

OBJECT_NAME    = STARLINK-36032
OBJECT_ID      = 2025-270G
CENTER_NAME    = EARTH
REF_FRAME      = TEME
TIME_SYSTEM    = UTC
MEAN_ELEMENT_THEORY = SGP/SGP4

EPOCH          = 2025-12-23T00:00:00.999648
MEAN_MOTION    = 15.40683094
ECCENTRICITY   = .00015778
INCLINATION    = 43.0003
RA_OF_ASC_NODE = 133.0866
ARG_OF_PERICENTER = 283.1884
MEAN_ANOMALY   = 61.7028

EPHEMERIS_TYPE = 0
CLASSIFICATION_TYPE = U
NORAD_CAT_ID   = 66594
ELEMENT_SET_NO = 999
REV_AT_EPOCH   = 578
BSTAR          = .44713104E-3
MEAN_MOTION_DOT = .18409E-3
MEAN_MOTION_DDOT = 0

CCSDS_OMM_VERS = 2.0
CREATION_DATE  = 
ORIGINATOR     = 

OBJECT_NAME    = STARLINK-35711
OBJECT_ID      = 2025-270H
CENTER_NAME    = EARTH
REF_FRAME      = TEME
TIME_SYSTEM    = UTC
MEAN_ELEMENT_THEORY = SGP/SGP4

EPOCH          = 2025-12-23T08:00:03.000384
MEAN_MOTION    = 15.40682767
ECCENTRICITY   = .00015389
INCLINATION    = 43.0005
RA_OF_ASC_NODE = 130.9540
ARG_OF_PERICENTER = 243.6405
MEAN_ANOMALY   = 239.4377

EPHEMERIS_TYPE = 0
CLASSIFICATION_TYPE = U
NORAD_CAT_ID   = 66595
ELEMENT_SET_NO = 999
REV_AT_EPOCH   = 594
BSTAR          = .19841296E-2
MEAN_MOTION_DOT = .83442E-3
MEAN_MOTION_DDOT = 0

CCSDS_OMM_VERS = 2.0
CREATION_DATE  = 
ORIGINATOR     = 

OBJECT_NAME    = STARLINK-35811
OBJECT_ID      = 2025-270J
CENTER_NAME    = EARTH
REF_FRAME      = TEME
TIME_SYSTEM    = UTC
MEAN_ELEMENT_THEORY = SGP/SGP4

EPOCH          = 2025-12-22T18:45:23.391072
MEAN_MOTION    = 15.40753898
ECCENTRICITY   = .00011739
INCLINATION    = 42.9952
RA_OF_ASC_NODE = 134.8575
ARG_OF_PERICENTER = 40.5321
MEAN_ANOMALY   = 319.5623

EPHEMERIS_TYPE = 0
CLASSIFICATION_TYPE = U
NORAD_CAT_ID   = 66596
ELEMENT_SET_NO = 999
REV_AT_EPOCH   = 600
BSTAR          = .13359196E-2
MEAN_MOTION_DOT = .56012E-3
MEAN_MOTION_DDOT = 0

CCSDS_OMM_VERS = 2.0
CREATION_DATE  = 
ORIGINATOR     = 

OBJECT_NAME    = STARLINK-35820
OBJECT_ID      = 2025-270K
CENTER_NAME    = EARTH
REF_FRAME      = TEME
TIME_SYSTEM    = UTC
MEAN_ELEMENT_THEORY = SGP/SGP4

EPOCH          = 2025-12-23T02:19:12.886752
MEAN_MOTION    = 15.40705080
ECCENTRICITY   = .0003044
INCLINATION    = 43.0012
RA_OF_ASC_NODE = 132.9200
ARG_OF_PERICENTER = 255.7586
MEAN_ANOMALY   = 104.2932

EPHEMERIS_TYPE = 0
CLASSIFICATION_TYPE = U
NORAD_CAT_ID   = 66597
ELEMENT_SET_NO = 999
REV_AT_EPOCH   = 605
BSTAR          = .51155435E-4
MEAN_MOTION_DOT = .1834E-4
MEAN_MOTION_DDOT = 0

CCSDS_OMM_VERS = 2.0
CREATION_DATE  = 
ORIGINATOR     = 

OBJECT_NAME    = STARLINK-35981
OBJECT_ID      = 2025-270L
CENTER_NAME    = EARTH
REF_FRAME      = TEME
TIME_SYSTEM    = UTC
MEAN_ELEMENT_THEORY = SGP/SGP4

EPOCH          = 2025-12-22T16:36:32.317344
MEAN_MOTION    = 15.40777654
ECCENTRICITY   = .00016022
INCLINATION    = 42.9975
RA_OF_ASC_NODE = 135.0381
ARG_OF_PERICENTER = 258.5949
MEAN_ANOMALY   = 101.4727

EPHEMERIS_TYPE = 0
CLASSIFICATION_TYPE = U
NORAD_CAT_ID   = 66598
ELEMENT_SET_NO = 999
REV_AT_EPOCH   = 573
BSTAR          = .18486578E-2
MEAN_MOTION_DOT = .77913E-3
MEAN_MOTION_DDOT = 0

CCSDS_OMM_VERS = 2.0
CREATION_DATE  = 
ORIGINATOR     = 

OBJECT_NAME    = STARLINK-35930
OBJECT_ID      = 2025-270M
CENTER_NAME    = EARTH
REF_FRAME      = TEME
TIME_SYSTEM    = UTC
MEAN_ELEMENT_THEORY = SGP/SGP4

EPOCH          = 2025-12-23T08:00:03.000384
MEAN_MOTION    = 15.40660816
ECCENTRICITY   = .00012635
INCLINATION    = 43.0003
RA_OF_ASC_NODE = 131.0138
ARG_OF_PERICENTER = 278.1426
MEAN_ANOMALY   = 180.1255

EPHEMERIS_TYPE = 0
CLASSIFICATION_TYPE = U
NORAD_CAT_ID   = 66599
ELEMENT_SET_NO = 999
REV_AT_EPOCH   = 610
BSTAR          = .15435933E-2
MEAN_MOTION_DOT = .6464E-3
MEAN_MOTION_DDOT = 0

CCSDS_OMM_VERS = 2.0
CREATION_DATE  = 
ORIGINATOR     = 

OBJECT_NAME    = STARLINK-35980
OBJECT_ID      = 2025-270N
CENTER_NAME    = EARTH
REF_FRAME      = TEME
TIME_SYSTEM    = UTC
MEAN_ELEMENT_THEORY = SGP/SGP4

EPOCH          = 2025-12-23T01:43:45.061248
MEAN_MOTION    = 15.40715980
ECCENTRICITY   = .00016224
INCLINATION    = 43.0002
RA_OF_ASC_NODE = 132.7304
ARG_OF_PERICENTER = 275.2410
MEAN_ANOMALY   = 84.8262

EPHEMERIS_TYPE = 0
CLASSIFICATION_TYPE = U
NORAD_CAT_ID   = 66600
ELEMENT_SET_NO = 999
REV_AT_EPOCH   = 584
BSTAR          = .89977641E-3
MEAN_MOTION_DOT = .37487E-3
MEAN_MOTION_DDOT = 0

CCSDS_OMM_VERS = 2.0
CREATION_DATE  = 
ORIGINATOR     = 

OBJECT_NAME    = STARLINK-35978
OBJECT_ID      = 2025-270P
CENTER_NAME    = EARTH
REF_FRAME      = TEME
TIME_SYSTEM    = UTC
MEAN_ELEMENT_THEORY = SGP/SGP4

EPOCH          = 2025-12-22T16:49:26.256576
MEAN_MOTION    = 15.40724614
ECCENTRICITY   = .00003635
INCLINATION    = 43.0011
RA_OF_ASC_NODE = 135.1079
ARG_OF_PERICENTER = 356.8630
MEAN_ANOMALY   = 3.2224

EPHEMERIS_TYPE = 0
CLASSIFICATION_TYPE = U
NORAD_CAT_ID   = 66601
ELEMENT_SET_NO = 999
REV_AT_EPOCH   = 572
BSTAR          = .26821225E-3
MEAN_MOTION_DOT = .10926E-3
MEAN_MOTION_DDOT = 0

